NAVSTAR 48 (USA 151)    
1 26407U 00040A   26158.26673196  .00000043  00000+0  00000+0 0  9990
2 26407  54.8526 215.5566 0121168 302.4173  18.5084  2.00557626189748
NAVSTAR 51 (USA 166)    
1 27663U 03005A   26157.61055816  .00000039  00000+0  00000+0 0  9995
2 27663  54.8837 215.3893 0147927  53.0597 289.9583  2.00561160171094
NAVSTAR 54 (USA 177)    
1 28190U 04009A   26156.95378611 -.00000034  00000+0  00000+0 0  9999
2 28190  54.8394 276.1413 0115653 172.6105 209.5805  2.00555154162726
NAVSTAR 56 (USA 180)    
1 28474U 04045A   26157.61624774 -.00000060  00000+0  00000+0 0  9991
2 28474  55.1431 325.3218 0169819 316.1364 249.3155  2.00555491158215
NAVSTAR 57 (USA 183)    
1 28874U 05038A   26157.87739907 -.00000034  00000+0  00000+0 0  9992
2 28874  54.8868 273.5938 0127804 296.0824  61.2103  2.00566422151625
INMARSAT 4-F2           
1 28899U 05044A   26158.05850157 -.00000247  00000+0  00000+0 0  9994
2 28899   5.0807  43.7091 0003193  32.4027 343.9075  1.00273056 75429
NAVSTAR 58 (USA 190)    
1 29486U 06042A   26157.27303984  .00000092  00000+0  00000+0 0  9997
2 29486  54.7093 151.7723 0106366  54.1524 125.0487  2.00570539144173
NAVSTAR 59 (USA 192)    
1 29601U 06052A   26156.95079377  .00000038  00000+0  00000+0 0  9997
2 29601  54.9361 214.4518 0085342  90.7548 270.3032  2.00557630143180
NAVSTAR 60 (USA 196)    
1 32260U 07047A   26157.25566087 -.00000010  00000+0  00000+0 0  9991
2 32260  54.0874  80.5163 0166340  87.1695 274.7346  2.00555823136599
COSMOS 2433 [GLONASS-M] 
1 32275U 07052A   26156.18418551 -.00000033  00000+0  00000+0 0  9991
2 32275  65.5837 316.3372 0002032 188.6368 171.3540  2.13104472144809
COSMOS 2432 [GLONASS-M] 
1 32276U 07052B   26158.13534686 -.00000028  00000+0  00000+0 0  9991
2 32276  65.5990 316.3991 0007913 334.2356  26.5443  2.13103458144879
NAVSTAR 61 (USA 199)    
1 32384U 07062A   26157.55667037 -.00000033  00000+0  00000+0 0  9990
2 32384  55.0405 274.5802 0035537 164.9421 179.5942  2.00559492135292
COSMOS 2434 [GLONASS-M] 
1 32393U 07065A   26158.24705932  .00000085  00000+0  00000+0 0  9993
2 32393  64.3173 192.2511 0001094 341.2525  51.1973  2.13101527143560
COSMOS 2436 [GLONASS-M] 
1 32395U 07065C   26158.11793726  .00000084  00000+0  00000+0 0  9998
2 32395  64.3258 192.3275 0017142 354.6115  71.1402  2.13100381143519
NAVSTAR 62 (USA 201)    
1 32711U 08012A   26158.16506150  .00000100  00000+0  00000+0 0  9990
2 32711  54.4960 150.3251 0211068 247.7180 110.0351  2.00572183133554
NAVSTAR 64 (USA 206)    
1 35752U 09043A   26158.30629850 -.00000068  00000+0  00000+0 0  9996
2 35752  56.2042  27.8399 0053706  82.7895  29.7266  2.00554832123165
COSMOS 2456 [GLONASS-M] 
1 36111U 09070A   26156.36211172 -.00000011  00000+0  00000+0 0  9992
2 36111  65.0050  71.3748 0005034 326.0196 218.4437  2.13103930128179
COSMOS 2457 [GLONASS-M] 
1 36112U 09070B   26157.12491642 -.00000011  00000+0  00000+0 0  9990
2 36112  64.9908  71.1931 0002355 128.2260  48.9476  2.13101386128193
COSMOS 2460 [GLONASS-M] 
1 36402U 10007C   26156.93373906 -.00000030  00000+0  00000+0 0  9995
2 36402  65.4275 314.8474 0002122 103.7485 288.7249  2.13101712126492
NAVSTAR 65 (USA 213)    
1 36585U 10022A   26157.59368921  .00000048  00000+0  00000+0 0  9996
2 36585  54.2711 208.9891 0126320  66.1226  10.1575  2.00561927117384
BEIDOU-2 IGSO-1         
1 36828U 10036A   26157.93924356 -.00000051  00000+0  00000+0 0  9994
2 36828  54.3006 163.0521 0059181 225.0815 312.9963  1.00275614 57991
BEIDOU-2 G4             
1 37210U 10057A   26158.16342079 -.00000098  00000+0  00000+0 0  9996
2 37210   3.6216  69.0055 0004818 202.0087 203.4049  1.00272137 57195
BEIDOU-2 IGSO-2         
1 37256U 10068A   26157.74761939 -.00000212  00000+0  00000+0 0  9999
2 37256  47.5684 271.9632 0054983 212.5902 147.2585  1.00287050 56690
BEIDOU-2 IGSO-3         
1 37384U 11013A   26155.63444529 -.00000179  00000+0  00000+0 0  9993
2 37384  62.3902  40.2715 0034446 185.4993   3.7397  1.00271497 55536
GSAT-8                  
1 37605U 11022A   26158.21393001  .00000099  00000+0  00000+0 0  9994
2 37605   2.1044  81.9456 0002206 213.0361  92.7290  1.00270799 53117
BEIDOU-2 IGSO-4         
1 37763U 11038A   26156.01309722  .00000056  00000+0  00000+0 0  9992
2 37763  54.5979 165.7814 0159001 231.3624 313.8818  1.00287701 54520
GSAT0102 (GALILEO-FM2)  
1 37847U 11060B   26157.50743845 -.00000065  00000+0  00000+0 0  9994
2 37847  57.0012 342.0512 0003468  13.6500 165.5102  1.70476050 90941
COSMOS 2476 [GLONASS-M] 
1 37867U 11064A   26157.40465189 -.00000008  00000+0  00000+0 0  9998
2 37867  65.2645  73.2350 0023090 239.6394 292.9621  2.13104057113538
COSMOS 2477 [GLONASS-M] 
1 37868U 11064B   26156.66858627 -.00000008  00000+0  00000+0 0  9999
2 37868  65.2705  73.3389 0020071 241.0452 267.2413  2.13103229113519
COSMOS 2475 [GLONASS-M] 
1 37869U 11064C   26156.29294414 -.00000008  00000+0  00000+0 0  9997
2 37869  65.2772  73.3732 0025997 253.8433 281.4335  2.13102052113512
